NORAD_CAT_ID,OBJECT_NAME,OBJECT_TYPE,EPOCH,MEAN_MOTION,ECCENTRICITY,INCLINATION,RA_OF_ASC_NODE,ARG_OF_PERICENTER,MEAN_ANOMALY,BSTAR,MEAN_MOTION_DOT,MEAN_MOTION_DDOT,TLE_LINE0,TLE_LINE1,TLE_LINE2,SEMIMAJOR_AXIS,PERIOD,APOGEE,PERIGEE,DECAYED
53900.0,STARLINK-5045,PAYLOAD,2024-05-27 21:46:33,15.08836689,9.53e-05,53.2173,5.2346,76.9856,283.1242,4.8669e-05,4.87e-06,0.0,0 STARLINK-5045,1 53900U 22119Q   24148.90732738  .00000487  00000-0  48669-4 0  9996,2 53900  53.2173   5.2346 0000953  76.9856 283.1242 15.08836689 93444,6917.891,95.438,540.415,539.096,0.0
53900.0,STARLINK-5045,PAYLOAD,2024-05-28 21:37:20,15.08840503,0.0001215,53.2186,0.7726,66.6912,293.4208,-1.3149e-05,-4.97e-06,0.0,0 STARLINK-5045,1 53900U 22119Q   24149.90092793 -.00000497  00000-0 -13149-4 0  9995,2 53900  53.2186   0.7726 0001215  66.6912 293.4208 15.08840503 93593,6917.879,95.438,540.584,538.903,0.0
53900.0,STARLINK-5045,PAYLOAD,2024-05-28 23:12:43,15.08841128,0.0001123,53.2188,0.4764,82.9104,277.2016,-1.4749e-05,-5.23e-06,0.0,0 STARLINK-5045,1 53900U 22119Q   24149.96716688 -.00000523  00000-0 -14749-4 0  9994,2 53900  53.2188   0.4764 0001123  82.9104 277.2016 15.08841128 93182,6917.877,95.437,540.519,538.965,0.0
53900.0,STARLINK-5045,PAYLOAD,2024-05-29 13:31:11,15.08838481,0.0001169,53.219,357.801,79.2158,280.8966,7.973e-05,9.81e-06,0.0,0 STARLINK-5045,1 53900U 22119Q   24150.56332504  .00000981  00000-0  79730-4 0  9990,2 53900  53.2190 357.8010 0001169  79.2158 280.8966 15.08838481 93694,6917.885,95.438,540.559,538.941,0.0
53900.0,STARLINK-5045,PAYLOAD,2024-05-29 21:28:06,15.08841609,0.0001219,53.2192,356.3144,78.4608,281.6521,0.00010084,1.317e-05,0.0,0 STARLINK-5045,1 53900U 22119Q   24150.89452323  .00001317  00000-0  10084-3 0  9998,2 53900  53.2192 356.3144 0001219  78.4608 281.6521 15.08841609 93743,6917.875,95.437,540.584,538.897,0.0
53900.0,STARLINK-5045,PAYLOAD,2024-05-30 13:21:58,15.088434,0.0001179,53.2192,353.3415,82.0499,278.0627,6.6621e-05,7.73e-06,0.0,0 STARLINK-5045,1 53900U 22119Q   24151.55692356  .00000773  00000-0  66621-4 0  9998,2 53900  53.2192 353.3415 0001179  82.0499 278.0627 15.08843400 93428,6917.87,95.437,540.551,538.919,0.0
53900.0,STARLINK-5045,PAYLOAD,2024-05-30 19:43:30,15.08843882,0.0001169,53.219,352.1517,83.0636,277.0489,6.7007e-05,7.79e-06,0.0,0 STARLINK-5045,1 53900U 22119Q   24151.82188269  .00000779  00000-0  67007-4 0  9996,2 53900  53.2190 352.1517 0001169  83.0636 277.0489 15.08843882 93888,6917.869,95.437,540.542,538.925,0.0
53900.0,STARLINK-5045,PAYLOAD,2024-05-31 19:34:17,15.08842035,0.0001266,53.2197,347.6892,100.5531,259.5604,-2.452e-05,-6.78e-06,0.0,0 STARLINK-5045,1 53900U 22119Q   24152.81548195 -.00000678  00000-0 -24520-4 0  9997,2 53900  53.2197 347.6892 0001266 100.5531 259.5604 15.08842035 93611,6917.874,95.437,540.615,538.863,0.0
53900.0,STARLINK-5045,PAYLOAD,2024-05-31 22:45:03,15.08844235,0.0001189,53.2195,347.0942,99.0302,261.0824,-5.7055e-06,-3.79e-06,0.0,0 STARLINK-5045,1 53900U 22119Q   24152.94795938 -.00000379  00000-0 -57055-5 0  9998,2 53900  53.2195 347.0942 0001189  99.0302 261.0824 15.08844235 94056,6917.867,95.437,540.555,538.91,0.0
53900.0,STARLINK-5045,PAYLOAD,2024-06-01 19:25:05,15.08828757,0.0001133,53.2186,343.2296,94.0976,266.0146,1.4376e-05,-5.9e-07,0.0,0 STARLINK-5045,1 53900U 22119Q   24153.80908982 -.00000059  00000-0  14376-4 0  9991,2 53900  53.2186 343.2296 0001133  94.0976 266.0146 15.08828757 93767,6917.915,95.438,540.564,538.996,0.0
53900.0,STARLINK-5045,PAYLOAD,2024-06-02 12:54:19,15.08832001,0.0001194,53.2185,339.9584,89.2405,270.8724,3.2284e-05,2.26e-06,0.0,0 STARLINK-5045,1 53900U 22119Q   24154.53772934  .00000226  00000-0  32284-4 0  9991,2 53900  53.2185 339.9584 0001194  89.2405 270.8724 15.08832001 94299,6917.905,95.438,540.596,538.944,0.0
53900.0,STARLINK-5045,PAYLOAD,2024-06-03 04:48:10,15.08843236,0.000116,53.2183,336.9847,86.3441,273.7683,8.6032e-05,1.082e-05,0.0,0 STARLINK-5045,1 53900U 22119Q   24155.20012218  .00001082  00000-0  86032-4 0  9999,2 53900  53.2183 336.9847 0001160  86.3441 273.7683 15.08843236 93979,6917.87,95.437,540.538,538.933,0.0
53900.0,STARLINK-5045,PAYLOAD,2024-06-03 19:06:39,15.08832023,0.0001337,53.2201,334.3124,91.4658,268.6487,8.4573e-05,1.058e-05,0.0,0 STARLINK-5045,1 53900U 22119Q   24155.79629238  .00001058  00000-0  84573-4 0  9990,2 53900  53.2201 334.3124 0001337  91.4658 268.6487 15.08832023 94061,6917.905,95.438,540.695,538.845,0.0
53900.0,STARLINK-5045,PAYLOAD,2024-06-03 22:17:25,15.08834287,0.0001522,53.219,333.7163,87.9445,272.1721,0.00010319,1.354e-05,0.0,0 STARLINK-5045,1 53900U 22119Q   24155.92877106  .00001354  00000-0  10319-3 0  9999,2 53900  53.2190 333.7163 0001522  87.9445 272.1721 15.08834287 94508,6917.898,95.438,540.816,538.71,0.0
53900.0,STARLINK-5045,PAYLOAD,2024-06-04 04:38:57,15.0885065,0.0001048,53.2192,332.5264,83.3728,276.7383,0.00020841,3.032e-05,0.0,0 STARLINK-5045,1 53900U 22119Q   24156.19371657  .00003032  00000-0  20841-3 0  9995,2 53900  53.2192 332.5264 0001048  83.3728 276.7383 15.08850650 94120,6917.848,95.437,540.438,538.988,0.0
53900.0,STARLINK-5045,PAYLOAD,2024-06-04 22:08:13,15.08835039,0.0002016,53.2177,329.2536,76.8112,283.3105,-2.5156e-05,-6.89e-06,0.0,0 STARLINK-5045,1 53900U 22119Q   24156.92237805 -.00000689  00000-0 -25156-4 0  9994,2 53900  53.2177 329.2536 0002016  76.8112 283.3105 15.08835039 94656,6917.896,95.438,541.155,538.366,0.0
53900.0,STARLINK-5045,PAYLOAD,2024-06-05 04:29:45,15.08841044,0.0001306,53.2211,328.0635,75.4038,284.7099,8.3691e-05,1.044e-05,0.0,0 STARLINK-5045,1 53900U 22119Q   24157.18732814  .00001044  00000-0  83691-4 0  9995,2 53900  53.2211 328.0635 0001306  75.4038 284.7099 15.08841044 94273,6917.877,95.437,540.646,538.839,0.0
53900.0,STARLINK-5045,PAYLOAD,2024-06-05 10:51:18,15.08839469,0.0002424,53.2178,326.8752,81.7547,278.372,6.9792e-05,8.23e-06,0.0,0 STARLINK-5045,1 53900U 22119Q   24157.45229438  .00000823  00000-0  69792-4 0  9998,2 53900  53.2178 326.8752 0002424  81.7547 278.3720 15.08839469 94737,6917.882,95.438,541.424,538.07,0.0
53900.0,STARLINK-5045,PAYLOAD,2024-06-06 04:20:32,15.08842237,0.0001842,53.2143,323.6047,84.727,275.3932,-7.9692e-05,-1.556e-05,0.0,0 STARLINK-5045,1 53900U 22119Q   24158.18093673 -.00001556  00000-0 -79692-4 0  9995,2 53900  53.2143 323.6047 0001842  84.7270 275.3932 15.08842237 94425,6917.874,95.437,541.013,538.464,0.0
53900.0,STARLINK-5045,PAYLOAD,2024-06-06 17:03:37,15.08836643,0.0001508,53.2073,321.2251,85.6919,274.4246,0.00011215,1.497e-05,0.0,0 STARLINK-5045,1 53900U 22119Q   24158.71085241  .00001497  00000-0  11215-3 0  9994,2 53900  53.2073 321.2251 0001508  85.6919 274.4246 15.08836643 94924,6917.891,95.438,540.799,538.712,0.0
53900.0,STARLINK-5045,PAYLOAD,2024-06-07 20:05:11,15.08840299,0.0001474,53.2163,316.1703,84.7031,275.413,3.3968e-05,2.53e-06,0.0,0 STARLINK-5045,1 53900U 22119Q   24159.83693395  .00000253  00000-0  33968-4 0  9992,2 53900  53.2163 316.1703 0001474  84.7031 275.4130 15.08840299 94673,6917.879,95.438,540.764,538.725,0.0
53900.0,STARLINK-5045,PAYLOAD,2024-06-08 04:02:06,15.08848073,0.0001192,53.22,314.6852,77.3528,282.7597,8.7647e-05,1.108e-05,0.0,0 STARLINK-5045,1 53900U 22119Q   24160.16812587  .00001108  00000-0  87647-4 0  9999,2 53900  53.2200 314.6852 0001192  77.3528 282.7597 15.08848073 94721,6917.856,95.437,540.545,538.896,0.0
53900.0,STARLINK-5045,PAYLOAD,2024-06-08 19:55:58,15.08837632,0.0001693,53.2174,311.7095,97.484,262.6344,5.4624e-05,5.81e-06,0.0,0 STARLINK-5045,1 53900U 22119Q   24160.83053555  .00000581  00000-0  54624-4 0  9998,2 53900  53.2174 311.7095 0001693  97.4840 262.6344 15.08837632 94821,6917.888,95.438,540.924,538.581,0.0
53900.0,STARLINK-5045,PAYLOAD,2024-06-09 18:11:22,15.08836833,0.0001374,53.2198,307.5467,85.5375,274.5774,-1.7502e-05,-5.66e-06,0.0,0 STARLINK-5045,1 53900U 22119Q   24161.75790147 -.00000566  00000-0 -17502-4 0  9994,2 53900  53.2198 307.5467 0001374  85.5375 274.5774 15.08836833 94966,6917.89,95.438,540.706,538.805,0.0
53900.0,STARLINK-5045,PAYLOAD,2024-06-10 13:15:59,15.08867421,0.0002356,53.2177,303.9793,81.741,278.3849,-0.00044062,-7.3e-05,0.0,0 STARLINK-5045,1 53900U 22119Q   24162.55277611 -.00007300  00000-0 -44062-3 0  9992,2 53900  53.2177 303.9793 0002356  81.7410 278.3849 15.08867421 95080,6917.797,95.436,541.291,538.032,0.0
53900.0,STARLINK-5045,PAYLOAD,2024-06-10 16:26:46,15.08837457,0.0001559,53.2174,303.3849,84.3576,275.7594,3.4588e-05,2.62e-06,0.0,0 STARLINK-5045,1 53900U 22119Q   24162.68526283  .00000262  00000-0  34588-4 0  9999,2 53900  53.2174 303.3849 0001559  84.3576 275.7594 15.08837457 95106,6917.888,95.438,540.832,538.675,0.0
53900.0,STARLINK-5045,PAYLOAD,2024-06-11 01:59:04,15.08858884,0.0001249,53.2189,301.6002,80.7796,279.3338,3.874e-05,3.29e-06,0.0,0 STARLINK-5045,1 53900U 22119Q   24163.08268764  .00000329  00000-0  38740-4 0  9999,2 53900  53.2189 301.6002 0001249  80.7796 279.3338 15.08858884 95163,6917.823,95.436,540.552,538.824,0.0
53900.0,STARLINK-5045,PAYLOAD,2024-06-11 13:06:47,15.08831191,0.0001235,53.2175,299.5194,82.7117,277.4015,3.4641e-05,2.63e-06,0.0,0 STARLINK-5045,1 53900U 22119Q   24163.54638718  .00000263  00000-0  34641-4 0  9993,2 53900  53.2175 299.5194 0001235  82.7117 277.4015 15.08831191 95656,6917.907,95.438,540.627,538.918,0.0
53900.0,STARLINK-5045,PAYLOAD,2024-06-12 01:49:51,15.08845705,0.0001425,53.2197,297.1383,75.4764,284.6386,0.00016818,2.39e-05,0.0,0 STARLINK-5045,1 53900U 22119Q   24164.07629507  .00002390  00000-0  16818-3 0  9996,2 53900  53.2197 297.1383 0001425  75.4764 284.6386 15.08845705 95312,6917.863,95.437,540.714,538.742,0.0
53900.0,STARLINK-5045,PAYLOAD,2024-06-12 12:57:35,15.08826072,0.000137,53.2173,295.0579,83.2998,276.815,-5.1737e-05,-1.111e-05,0.0,0 STARLINK-5045,1 53900U 22119Q   24164.53999562 -.00001111  00000-0 -51737-4 0  9990,2 53900  53.2173 295.0579 0001370  83.2998 276.8150 15.08826072 95380,6917.923,95.438,540.736,538.84,0.0
